{
  "type": "FeatureCollection",
  "features": [
    {
      "type": "Feature",
      "properties": {
        "norad_id": 36244,
        "name": "FENGYUN 1C DEB",
        "group": "fengyun-1c-debris",
        "lat": 68.34610745744354,
        "lon": -67.74768351161214,
        "alt_km": 835.1467010025281,
        "timestamp": "2025-12-04T10:51:50.393648+00:00",
        "meta_object_name": "FENGYUN 1C DEB",
        "meta_object_id": "1999-025DVV",
        "meta_epoch": "2025-12-01T06:30:33.359616",
        "meta_mean_motion": 14.24827854,
        "meta_eccentricity": 0.00483696,
        "meta_inclination": 98.9263,
        "meta_ra_of_asc_node": 85.6985,
        "meta_arg_of_pericenter": 317.9202,
        "meta_mean_anomaly": 41.8266,
        "meta_ephemeris_type": 0,
        "meta_classification_type": "U",
        "meta_norad_cat_id": 36244,
        "meta_element_set_no": 999,
        "meta_rev_at_epoch": 91815,
        "meta_bstar": 0.0019641891,
        "meta_mean_motion_dot": 4.594e-05,
        "meta_mean_motion_ddot": 0,
        "tle_line1": "1 36244U 99025DVV 25335.27121944  .00004594  00000+0  19642-2 0  9997",
        "tle_line2": "2 36244  98.9263  85.6985 0048369 317.9202  41.8266 14.24827854918159"
      },
      "geometry": {
        "type": "Point",
        "coordinates": [
          -67.74768351161214,
          68.34610745744354
        ]
      }
    },
    {
      "type": "Feature",
      "properties": {
        "norad_id": 36247,
        "name": "FENGYUN 1C DEB",
        "group": "fengyun-1c-debris",
        "lat": 15.782293484617611,
        "lon": 174.24654948736747,
        "alt_km": 814.3231670814439,
        "timestamp": "2025-12-04T10:51:50.393658+00:00",
        "meta_object_name": "FENGYUN 1C DEB",
        "meta_object_id": "1999-025DVY",
        "meta_epoch": "2025-12-01T11:45:50.986944",
        "meta_mean_motion": 14.33529137,
        "meta_eccentricity": 0.01878056,
        "meta_inclination": 98.2683,
        "meta_ra_of_asc_node": 349.0587,
        "meta_arg_of_pericenter": 67.2123,
        "meta_mean_anomaly": 294.8783,
        "meta_ephemeris_type": 0,
        "meta_classification_type": "U",
        "meta_norad_cat_id": 36247,
        "meta_element_set_no": 999,
        "meta_rev_at_epoch": 70101,
        "meta_bstar": 0.00050385684,
        "meta_mean_motion_dot": 1.653e-05,
        "meta_mean_motion_ddot": 0,
        "tle_line1": "1 36247U 99025DVY 25335.49017346  .00001653  00000+0  50386-3 0  9998",
        "tle_line2": "2 36247  98.2683 349.0587 0187805  67.2123 294.8783 14.33529137701014"
      },
      "geometry": {
        "type": "Point",
        "coordinates": [
          174.24654948736747,
          15.782293484617611
        ]
      }
    },
    {
      "type": "Feature",
      "properties": {
        "norad_id": 36254,
        "name": "FENGYUN 1C DEB",
        "group": "fengyun-1c-debris",
        "lat": -62.770046894743125,
        "lon": 91.40994685159062,
        "alt_km": 558.4715049768411,
        "timestamp": "2025-12-04T10:51:50.393668+00:00",
        "meta_object_name": "FENGYUN 1C DEB",
        "meta_object_id": "1999-025DWF",
        "meta_epoch": "2025-11-28T03:13:13.440576",
        "meta_mean_motion": 15.14661368,
        "meta_eccentricity": 0.00473049,
        "meta_inclination": 99.5271,
        "meta_ra_of_asc_node": 282.5527,
        "meta_arg_of_pericenter": 88.2617,
        "meta_mean_anomaly": 272.4026,
        "meta_ephemeris_type": 0,
        "meta_classification_type": "U",
        "meta_norad_cat_id": 36254,
        "meta_element_set_no": 999,
        "meta_rev_at_epoch": 60555,
        "meta_bstar": 0.0039684562,
        "meta_mean_motion_dot": 0.00076108,
        "meta_mean_motion_ddot": 0,
        "tle_line1": "1 36254U 99025DWF 25332.13418334  .00076108  00000+0  39685-2 0  9991",
        "tle_line2": "2 36254  99.5271 282.5527 0047304  88.2617 272.4026 15.14661368605551"
      },
      "geometry": {
        "type": "Point",
        "coordinates": [
          91.40994685159062,
          -62.770046894743125
        ]
      }
    },
    {
      "type": "Feature",
      "properties": {
        "norad_id": 36255,
        "name": "FENGYUN 1C DEB",
        "group": "fengyun-1c-debris",
        "lat": -27.172080471729323,
        "lon": 73.42284979243856,
        "alt_km": 732.9708647057241,
        "timestamp": "2025-12-04T10:51:50.393678+00:00",
        "meta_object_name": "FENGYUN 1C DEB",
        "meta_object_id": "1999-025DWG",
        "meta_epoch": "2025-12-03T00:46:33.057120",
        "meta_mean_motion": 14.36499464,
        "meta_eccentricity": 0.00635056,
        "meta_inclination": 99.4338,
        "meta_ra_of_asc_node": 256.7644,
        "meta_arg_of_pericenter": 191.8797,
        "meta_mean_anomaly": 234.2897,
        "meta_ephemeris_type": 0,
        "meta_classification_type": "U",
        "meta_norad_cat_id": 36255,
        "meta_element_set_no": 999,
        "meta_rev_at_epoch": 63871,
        "meta_bstar": 0.0010002372,
        "meta_mean_motion_dot": 2.953e-05,
        "meta_mean_motion_ddot": 0,
        "tle_line1": "1 36255U 99025DWG 25337.03232705  .00002953  00000+0  10002-2 0  9991",
        "tle_line2": "2 36255  99.4338 256.7644 0063505 191.8797 234.2897 14.36499464638714"
      },
      "geometry": {
        "type": "Point",
        "coordinates": [
          73.42284979243856,
          -27.172080471729323
        ]
      }
    },
    {
      "type": "Feature",
      "properties": {
        "norad_id": 36258,
        "name": "FENGYUN 1C DEB",
        "group": "fengyun-1c-debris",
        "lat": -80.89796362931614,
        "lon": 94.52649152873062,
        "alt_km": 710.6224606851501,
        "timestamp": "2025-12-04T10:51:50.393689+00:00",
        "meta_object_name": "FENGYUN 1C DEB",
        "meta_object_id": "1999-025DWK",
        "meta_epoch": "2025-12-03T07:36:00.822816",
        "meta_mean_motion": 14.74771314,
        "meta_eccentricity": 0.0173413,
        "meta_inclination": 99.0882,
        "meta_ra_of_asc_node": 5.6512,
        "meta_arg_of_pericenter": 154.8998,
        "meta_mean_anomaly": 206.0764,
        "meta_ephemeris_type": 0,
        "meta_classification_type": "U",
        "meta_norad_cat_id": 36258,
        "meta_element_set_no": 999,
        "meta_rev_at_epoch": 90683,
        "meta_bstar": 0.00043394,
        "meta_mean_motion_dot": 3.631e-05,
        "meta_mean_motion_ddot": 0,
        "tle_line1": "1 36258U 99025DWK 25337.31667619  .00003631  00000+0  43394-3 0  9996",
        "tle_line2": "2 36258  99.0882   5.6512 0173413 154.8998 206.0764 14.74771314906834"
      },
      "geometry": {
        "type": "Point",
        "coordinates": [
          94.52649152873062,
          -80.89796362931614
        ]
      }
    },
    {
      "type": "Feature",
      "properties": {
        "norad_id": 36260,
        "name": "FENGYUN 1C DEB",
        "group": "fengyun-1c-debris",
        "lat": 31.478926121617132,
        "lon": -24.485014487878207,
        "alt_km": 844.0959401936634,
        "timestamp": "2025-12-04T10:51:50.393699+00:00",
        "meta_object_name": "FENGYUN 1C DEB",
        "meta_object_id": "1999-025DWM",
        "meta_epoch": "2025-12-03T17:44:50.798112",
        "meta_mean_motion": 14.15362568,
        "meta_eccentricity": 0.0014917,
        "meta_inclination": 98.6608,
        "meta_ra_of_asc_node": 340.1773,
        "meta_arg_of_pericenter": 277.2029,
        "meta_mean_anomaly": 82.7449,
        "meta_ephemeris_type": 0,
        "meta_classification_type": "U",
        "meta_norad_cat_id": 36260,
        "meta_element_set_no": 999,
        "meta_rev_at_epoch": 87681,
        "meta_bstar": 0.00025923312,
        "meta_mean_motion_dot": 4.63e-06,
        "meta_mean_motion_ddot": 0,
        "tle_line1": "1 36260U 99025DWM 25337.73947683  .00000463  00000+0  25923-3 0  9995",
        "tle_line2": "2 36260  98.6608 340.1773 0014917 277.2029  82.7449 14.15362568876817"
      },
      "geometry": {
        "type": "Point",
        "coordinates": [
          -24.485014487878207,
          31.478926121617132
        ]
      }
    },
    {
      "type": "Feature",
      "properties": {
        "norad_id": 36261,
        "name": "FENGYUN 1C DEB",
        "group": "fengyun-1c-debris",
        "lat": 68.0194266782252,
        "lon": -160.32692880734862,
        "alt_km": 837.2001807477309,
        "timestamp": "2025-12-04T10:51:50.393709+00:00",
        "meta_object_name": "FENGYUN 1C DEB",
        "meta_object_id": "1999-025DWN",
        "meta_epoch": "2025-12-02T22:49:55.041600",
        "meta_mean_motion": 13.45467056,
        "meta_eccentricity": 0.03552723,
        "meta_inclination": 101.3643,
        "meta_ra_of_asc_node": 227.8571,
        "meta_arg_of_pericenter": 97.9346,
        "meta_mean_anomaly": 266.225,
        "meta_ephemeris_type": 0,
        "meta_classification_type": "U",
        "meta_norad_cat_id": 36261,
        "meta_element_set_no": 999,
        "meta_rev_at_epoch": 84301,
        "meta_bstar": 0.00066301052,
        "meta_mean_motion_dot": 5.22e-06,
        "meta_mean_motion_ddot": 0,
        "tle_line1": "1 36261U 99025DWN 25336.95133150  .00000522  00000+0  66301-3 0  9996",
        "tle_line2": "2 36261 101.3643 227.8571 0355272  97.9346 266.2250 13.45467056843012"
      },
      "geometry": {
        "type": "Point",
        "coordinates": [
          -160.32692880734862,
          68.0194266782252
        ]
      }
    }
  ]
}